[{"OBJECT_NAME":"STARLINK-5420","OBJECT_ID":"2022-175AS","EPOCH":"2026-03-09T07:02:21.312672","MEAN_MOTION":15.08833324,"ECCENTRICITY":0.00016257,"INCLINATION":53.2179,"RA_OF_ASC_NODE":20.6647,"ARG_OF_PERICENTER":83.9957,"MEAN_ANOMALY":276.1221,"EPHEMERIS_TYPE":0,"CLASSIFICATION_TYPE":"U","NORAD_CAT_ID":54798,"ELEMENT_SET_NO":999,"REV_AT_EPOCH":18021,"BSTAR":3.1865183e-5,"MEAN_MOTION_DOT":2.19e-6,"MEAN_MOTION_DDOT":0},{"OBJECT_NAME":"CZ-4 DEB","OBJECT_ID":"2006-046L","EPOCH":"2026-03-09T05:26:57.251328","MEAN_MOTION":15.20206122,"ECCENTRICITY":0.00567956,"INCLINATION":97.8211,"RA_OF_ASC_NODE":163.0679,"ARG_OF_PERICENTER":229.3561,"MEAN_ANOMALY":130.2727,"EPHEMERIS_TYPE":0,"CLASSIFICATION_TYPE":"U","NORAD_CAT_ID":35378,"ELEMENT_SET_NO":999,"REV_AT_EPOCH":2541,"BSTAR":0.0021311714,"MEAN_MOTION_DOT":0.00048409,"MEAN_MOTION_DDOT":0}]
